[{"OBJECT_NAME":"ONEWEB-0592","OBJECT_ID":"2022-166S","EPOCH":"2025-12-12T06:23:39.579648","MEAN_MOTION":13.21825219,"ECCENTRICITY":0.00017233,"INCLINATION":87.9228,"RA_OF_ASC_NODE":281.2353,"ARG_OF_PERICENTER":79.3003,"MEAN_ANOMALY":280.8325,"EPHEMERIS_TYPE":0,"CLASSIFICATION_TYPE":"U","NORAD_CAT_ID":54658,"ELEMENT_SET_NO":999,"REV_AT_EPOCH":14674,"BSTAR":7.1053618e-5,"MEAN_MOTION_DOT":4.2e-7,"MEAN_MOTION_DDOT":0},{"OBJECT_NAME":"ONEWEB-0593","OBJECT_ID":"2022-166T","EPOCH":"2025-12-12T06:56:50.226144","MEAN_MOTION":13.21826714,"ECCENTRICITY":0.00018692,"INCLINATION":87.9216,"RA_OF_ASC_NODE":281.2582,"ARG_OF_PERICENTER":80.1462,"MEAN_ANOMALY":279.9883,"EPHEMERIS_TYPE":0,"CLASSIFICATION_TYPE":"U","NORAD_CAT_ID":54659,"ELEMENT_SET_NO":999,"REV_AT_EPOCH":14685,"BSTAR":0.0002556419,"MEAN_MOTION_DOT":1.19e-6,"MEAN_MOTION_DDOT":0},{"OBJECT_NAME":"ONEWEB-0594","OBJECT_ID":"2022-166U","EPOCH":"2025-12-12T05:36:15.981120","MEAN_MOTION":13.21824564,"ECCENTRICITY":0.00018828,"INCLINATION":87.9223,"RA_OF_ASC_NODE":281.2866,"ARG_OF_PERICENTER":76.0563,"MEAN_ANOMALY":284.078,"EPHEMERIS_TYPE":0,"CLASSIFICATION_TYPE":"U","NORAD_CAT_ID":54660,"ELEMENT_SET_NO":999,"REV_AT_EPOCH":14686,"BSTAR":0.00023543581,"MEAN_MOTION_DOT":1.1e-6,"MEAN_MOTION_DDOT":0},{"OBJECT_NAME":"ONEWEB-0595","OBJECT_ID":"2022-166V","EPOCH":"2025-12-12T06:52:04.991232","MEAN_MOTION":13.21824483,"ECCENTRICITY":0.00016704,"INCLINATION":87.9213,"RA_OF_ASC_NODE":281.2498,"ARG_OF_PERICENTER":72.1673,"MEAN_ANOMALY":287.9643,"EPHEMERIS_TYPE":0,"CLASSIFICATION_TYPE":"U","NORAD_CAT_ID":54661,"ELEMENT_SET_NO":999,"REV_AT_EPOCH":14684,"BSTAR":0.00022736508,"MEAN_MOTION_DOT":1.07e-6,"MEAN_MOTION_DDOT":0},{"OBJECT_NAME":"ONEWEB-0596","OBJECT_ID":"2022-166W","EPOCH":"2025-12-12T06:14:10.443840","MEAN_MOTION":13.21824349,"ECCENTRICITY":0.00017149,"INCLINATION":87.9217,"RA_OF_ASC_NODE":281.2715,"ARG_OF_PERICENTER":76.5488,"MEAN_ANOMALY":283.5837,"EPHEMERIS_TYPE":0,"CLASSIFICATION_TYPE":"U","NORAD_CAT_ID":54662,"ELEMENT_SET_NO":999,"REV_AT_EPOCH":14684,"BSTAR":2.1189017e-5,"MEAN_MOTION_DOT":2.2e-7,"MEAN_MOTION_DDOT":0},{"OBJECT_NAME":"ONEWEB-0597","OBJECT_ID":"2022-166X","EPOCH":"2025-12-12T05:48:07.207776","MEAN_MOTION":13.21826043,"ECCENTRICITY":0.00017848,"INCLINATION":87.9218,"RA_OF_ASC_NODE":281.2801,"ARG_OF_PERICENTER":81.2558,"MEAN_ANOMALY":278.8778,"EPHEMERIS_TYPE":0,"CLASSIFICATION_TYPE":"U","NORAD_CAT_ID":54663,"ELEMENT_SET_NO":999,"REV_AT_EPOCH":14684,"BSTAR":0.00016697909,"MEAN_MOTION_DOT":8.2e-7,"MEAN_MOTION_DDOT":0},{"OBJECT_NAME":"ONEWEB-0600","OBJECT_ID":"2022-166Y","EPOCH":"2025-12-12T07:11:02.938848","MEAN_MOTION":13.21824812,"ECCENTRICITY":0.00018843,"INCLINATION":87.9216,"RA_OF_ASC_NODE":281.2596,"ARG_OF_PERICENTER":79.3916,"MEAN_ANOMALY":280.743,"EPHEMERIS_TYPE":0,"CLASSIFICATION_TYPE":"U","NORAD_CAT_ID":54664,"ELEMENT_SET_NO":999,"REV_AT_EPOCH":14682,"BSTAR":0.00017932675,"MEAN_MOTION_DOT":8.7e-7,"MEAN_MOTION_DDOT":0},{"OBJECT_NAME":"ONEWEB-0601","OBJECT_ID":"2022-166Z","EPOCH":"2025-12-12T06:59:12.094944","MEAN_MOTION":13.21825131,"ECCENTRICITY":0.00018241,"INCLINATION":87.9216,"RA_OF_ASC_NODE":281.279,"ARG_OF_PERICENTER":86.7871,"MEAN_ANOMALY":273.3472,"EPHEMERIS_TYPE":0,"CLASSIFICATION_TYPE":"U","NORAD_CAT_ID":54665,"ELEMENT_SET_NO":999,"REV_AT_EPOCH":14701,"BSTAR":-1.0301489e-5,"MEAN_MOTION_DOT":9.0e-8,"MEAN_MOTION_DDOT":0},{"OBJECT_NAME":"ONEWEB-0602","OBJECT_ID":"2022-166AA","EPOCH":"2025-12-12T06:08:15.688032","MEAN_MOTION":13.21826831,"ECCENTRICITY":0.00021461,"INCLINATION":87.922,"RA_OF_ASC_NODE":281.2899,"ARG_OF_PERICENTER":78.8818,"MEAN_ANOMALY":281.2557,"EPHEMERIS_TYPE":0,"CLASSIFICATION_TYPE":"U","NORAD_CAT_ID":54666,"ELEMENT_SET_NO":999,"REV_AT_EPOCH":14685,"BSTAR":0.00014288077,"MEAN_MOTION_DOT":7.2e-7,"MEAN_MOTION_DDOT":0},{"OBJECT_NAME":"ONEWEB-0603","OBJECT_ID":"2022-166AB","EPOCH":"2025-12-12T06:16:32.635776","MEAN_MOTION":13.21825563,"ECCENTRICITY":0.00018017,"INCLINATION":87.9229,"RA_OF_ASC_NODE":281.2277,"ARG_OF_PERICENTER":80.4459,"MEAN_ANOMALY":279.6879,"EPHEMERIS_TYPE":0,"CLASSIFICATION_TYPE":"U","NORAD_CAT_ID":54667,"ELEMENT_SET_NO":999,"REV_AT_EPOCH":14678,"BSTAR":-0.00044892974,"MEAN_MOTION_DOT":-1.72e-6,"MEAN_MOTION_DDOT":0},{"OBJECT_NAME":"ONEWEB-0604","OBJECT_ID":"2022-166AC","EPOCH":"2025-12-12T05:59:56.821344","MEAN_MOTION":13.21825815,"ECCENTRICITY":0.00018037,"INCLINATION":87.9222,"RA_OF_ASC_NODE":281.2499,"ARG_OF_PERICENTER":75.1815,"MEAN_ANOMALY":284.9519,"EPHEMERIS_TYPE":0,"CLASSIFICATION_TYPE":"U","NORAD_CAT_ID":54668,"ELEMENT_SET_NO":999,"REV_AT_EPOCH":14674,"BSTAR":-0.00046122194,"MEAN_MOTION_DOT":-1.77e-6,"MEAN_MOTION_DDOT":0},{"OBJECT_NAME":"ONEWEB-0605","OBJECT_ID":"2022-166AD","EPOCH":"2025-12-12T05:50:29.292576","MEAN_MOTION":13.21825523,"ECCENTRICITY":0.00015515,"INCLINATION":87.9216,"RA_OF_ASC_NODE":281.2793,"ARG_OF_PERICENTER":97.9253,"MEAN_ANOMALY":262.2057,"EPHEMERIS_TYPE":0,"CLASSIFICATION_TYPE":"U","NORAD_CAT_ID":54669,"ELEMENT_SET_NO":999,"REV_AT_EPOCH":14681,"BSTAR":0.00029102144,"MEAN_MOTION_DOT":1.33e-6,"MEAN_MOTION_DDOT":0},{"OBJECT_NAME":"ONEWEB-0606","OBJECT_ID":"2022-166AE","EPOCH":"2025-12-12T06:21:17.702208","MEAN_MOTION":13.21825321,"ECCENTRICITY":0.00016853,"INCLINATION":87.9219,"RA_OF_ASC_NODE":281.2861,"ARG_OF_PERICENTER":70.8074,"MEAN_ANOMALY":289.3242,"EPHEMERIS_TYPE":0,"CLASSIFICATION_TYPE":"U","NORAD_CAT_ID":54670,"ELEMENT_SET_NO":999,"REV_AT_EPOCH":14687,"BSTAR":0.00021507697,"MEAN_MOTION_DOT":1.02e-6,"MEAN_MOTION_DDOT":0},{"OBJECT_NAME":"ONEWEB-0607","OBJECT_ID":"2022-166AF","EPOCH":"2025-12-12T05:33:53.961120","MEAN_MOTION":13.21825483,"ECCENTRICITY":0.00019043,"INCLINATION":87.922,"RA_OF_ASC_NODE":281.2563,"ARG_OF_PERICENTER":81.6451,"MEAN_ANOMALY":278.4899,"EPHEMERIS_TYPE":0,"CLASSIFICATION_TYPE":"U","NORAD_CAT_ID":54671,"ELEMENT_SET_NO":999,"REV_AT_EPOCH":14684,"BSTAR":0.0002368921,"MEAN_MOTION_DOT":1.11e-6,"MEAN_MOTION_DDOT":0},{"OBJECT_NAME":"ONEWEB-0608","OBJECT_ID":"2022-166AG","EPOCH":"2025-12-12T05:43:22.044576","MEAN_MOTION":13.21824593,"ECCENTRICITY":0.00017771,"INCLINATION":87.9226,"RA_OF_ASC_NODE":281.2428,"ARG_OF_PERICENTER":95.3281,"MEAN_ANOMALY":264.8056,"EPHEMERIS_TYPE":0,"CLASSIFICATION_TYPE":"U","NORAD_CAT_ID":54672,"ELEMENT_SET_NO":999,"REV_AT_EPOCH":14685,"BSTAR":0.00013181596,"MEAN_MOTION_DOT":6.7e-7,"MEAN_MOTION_DDOT":0},{"OBJECT_NAME":"ONEWEB-0610","OBJECT_ID":"2022-166AH","EPOCH":"2025-12-12T05:14:55.827744","MEAN_MOTION":13.21824291,"ECCENTRICITY":0.00018634,"INCLINATION":87.921,"RA_OF_ASC_NODE":281.2802,"ARG_OF_PERICENTER":98.7059,"MEAN_ANOMALY":261.4286,"EPHEMERIS_TYPE":0,"CLASSIFICATION_TYPE":"U","NORAD_CAT_ID":54673,"ELEMENT_SET_NO":999,"REV_AT_EPOCH":14675,"BSTAR":-1.1194354e-5,"MEAN_MOTION_DOT":8.0e-8,"MEAN_MOTION_DDOT":0}]
