ONEWEB-0592             
1 54658U 22166S   25346.26643032  .00000042  00000+0  71054-4 0  9997
2 54658  87.9228 281.2353 0001723  79.3003 280.8325 13.21825219146749
ONEWEB-0593             
1 54659U 22166T   25346.28947021  .00000119  00000+0  25564-3 0  9994
2 54659  87.9216 281.2582 0001869  80.1462 279.9883 13.21826714146852
ONEWEB-0594             
1 54660U 22166U   25346.23351830  .00000110  00000+0  23544-3 0  9995
2 54660  87.9223 281.2866 0001882  76.0563 284.0780 13.21824564146863
ONEWEB-0595             
1 54661U 22166V   25346.28616888  .00000107  00000+0  22737-3 0  9997
2 54661  87.9213 281.2498 0001670  72.1673 287.9643 13.21824483146846
ONEWEB-0596             
1 54662U 22166W   25346.25984310  .00000022  00000+0  21189-4 0  9990
2 54662  87.9217 281.2715 0001714  76.5488 283.5837 13.21824349146842
ONEWEB-0597             
1 54663U 22166X   25346.24175009  .00000082  00000+0  16698-3 0  9991
2 54663  87.9218 281.2801 0001784  81.2558 278.8778 13.21826043146842
ONEWEB-0600             
1 54664U 22166Y   25346.29933957  .00000087  00000+0  17933-3 0  9999
2 54664  87.9216 281.2596 0001884  79.3916 280.7430 13.21824812146826
ONEWEB-0601             
1 54665U 22166Z   25346.29111221  .00000009  00000+0 -10301-4 0  9990
2 54665  87.9216 281.2790 0001824  86.7871 273.3472 13.21825131147010
ONEWEB-0602             
1 54666U 22166AA  25346.25573713  .00000072  00000+0  14288-3 0  9991
2 54666  87.9220 281.2899 0002146  78.8818 281.2557 13.21826831146858
ONEWEB-0603             
1 54667U 22166AB  25346.26148884 -.00000172  00000+0 -44893-3 0  9998
2 54667  87.9229 281.2277 0001801  80.4459 279.6879 13.21825563146786
ONEWEB-0604             
1 54668U 22166AC  25346.24996321 -.00000177  00000+0 -46122-3 0  9996
2 54668  87.9222 281.2499 0001803  75.1815 284.9519 13.21825815146741
ONEWEB-0605             
1 54669U 22166AD  25346.24339459  .00000133  00000+0  29102-3 0  9999
2 54669  87.9216 281.2793 0001551  97.9253 262.2057 13.21825523146810
ONEWEB-0606             
1 54670U 22166AE  25346.26478822  .00000102  00000+0  21508-3 0  9999
2 54670  87.9219 281.2861 0001685  70.8074 289.3242 13.21825321146878
ONEWEB-0607             
1 54671U 22166AF  25346.23187455  .00000111  00000+0  23689-3 0  9998
2 54671  87.9220 281.2563 0001904  81.6451 278.4899 13.21825483146846
ONEWEB-0608             
1 54672U 22166AG  25346.23844959  .00000067  00000+0  13182-3 0  9995
2 54672  87.9226 281.2428 0001777  95.3281 264.8056 13.21824593146850
ONEWEB-0610             
1 54673U 22166AH  25346.21870171  .00000008  00000+0 -11194-4 0  9997
2 54673  87.9210 281.2802 0001863  98.7059 261.4286 13.21824291146758
